CCSDS_OMM_VERS = 2.0
CREATION_DATE  = 
ORIGINATOR     = 

OBJECT_NAME    = SL-4 R/B
OBJECT_ID      = 2014-021B
CENTER_NAME    = EARTH
REF_FRAME      = TEME
TIME_SYSTEM    = UTC
MEAN_ELEMENT_THEORY = SGP/SGP4

EPOCH          = 2026-01-24T21:53:23.940096
MEAN_MOTION    = 15.37803769
ECCENTRICITY   = .009912
INCLINATION    = 51.6065
RA_OF_ASC_NODE = 190.6107
ARG_OF_PERICENTER = 303.2516
MEAN_ANOMALY   = 55.8999

EPHEMERIS_TYPE = 0
CLASSIFICATION_TYPE = U
NORAD_CAT_ID   = 39679
ELEMENT_SET_NO = 999
REV_AT_EPOCH   = 64953
BSTAR          = .37193E-3
MEAN_MOTION_DOT = .16197E-3
MEAN_MOTION_DDOT = 0

CCSDS_OMM_VERS = 2.0
CREATION_DATE  = 
ORIGINATOR     = 

OBJECT_NAME    = ALOS-2
OBJECT_ID      = 2014-029A
CENTER_NAME    = EARTH
REF_FRAME      = TEME
TIME_SYSTEM    = UTC
MEAN_ELEMENT_THEORY = SGP/SGP4

EPOCH          = 2026-01-25T05:32:35.567808
MEAN_MOTION    = 14.79467970
ECCENTRICITY   = .0001447
INCLINATION    = 97.9194
RA_OF_ASC_NODE = 124.4517
ARG_OF_PERICENTER = 106.3127
MEAN_ANOMALY   = 253.8244

EPHEMERIS_TYPE = 0
CLASSIFICATION_TYPE = U
NORAD_CAT_ID   = 39766
ELEMENT_SET_NO = 999
REV_AT_EPOCH   = 63044
BSTAR          = .13199E-3
MEAN_MOTION_DOT = .934E-5
MEAN_MOTION_DDOT = 0

CCSDS_OMM_VERS = 2.0
CREATION_DATE  = 
ORIGINATOR     = 

OBJECT_NAME    = YAOGAN-29
OBJECT_ID      = 2015-069A
CENTER_NAME    = EARTH
REF_FRAME      = TEME
TIME_SYSTEM    = UTC
MEAN_ELEMENT_THEORY = SGP/SGP4

EPOCH          = 2026-01-25T04:57:39.736224
MEAN_MOTION    = 14.82938673
ECCENTRICITY   = .0002702
INCLINATION    = 98.0188
RA_OF_ASC_NODE = 53.5114
ARG_OF_PERICENTER = 109.2108
MEAN_ANOMALY   = 250.9398

EPHEMERIS_TYPE = 0
CLASSIFICATION_TYPE = U
NORAD_CAT_ID   = 41038
ELEMENT_SET_NO = 999
REV_AT_EPOCH   = 54943
BSTAR          = .2248E-4
MEAN_MOTION_DOT = .128E-5
MEAN_MOTION_DDOT = 0

CCSDS_OMM_VERS = 2.0
CREATION_DATE  = 
ORIGINATOR     = 

OBJECT_NAME    = ASTRO-H (HITOMI)
OBJECT_ID      = 2016-012A
CENTER_NAME    = EARTH
REF_FRAME      = TEME
TIME_SYSTEM    = UTC
MEAN_ELEMENT_THEORY = SGP/SGP4

EPOCH          = 2026-01-25T00:02:16.469664
MEAN_MOTION    = 15.09673973
ECCENTRICITY   = .0009922
INCLINATION    = 30.9996
RA_OF_ASC_NODE = 278.4090
ARG_OF_PERICENTER = 254.3148
MEAN_ANOMALY   = 105.6395

EPHEMERIS_TYPE = 0
CLASSIFICATION_TYPE = U
NORAD_CAT_ID   = 41337
ELEMENT_SET_NO = 999
REV_AT_EPOCH   = 54562
BSTAR          = .27701E-3
MEAN_MOTION_DOT = .467E-4
MEAN_MOTION_DDOT = 0

CCSDS_OMM_VERS = 2.0
CREATION_DATE  = 
ORIGINATOR     = 

OBJECT_NAME    = HXMT (HUIYAN)
OBJECT_ID      = 2017-034A
CENTER_NAME    = EARTH
REF_FRAME      = TEME
TIME_SYSTEM    = UTC
MEAN_ELEMENT_THEORY = SGP/SGP4

EPOCH          = 2026-01-24T23:55:33.976128
MEAN_MOTION    = 15.16876338
ECCENTRICITY   = .0032942
INCLINATION    = 43.0138
RA_OF_ASC_NODE = 259.4804
ARG_OF_PERICENTER = 316.4130
MEAN_ANOMALY   = 43.4117

EPHEMERIS_TYPE = 0
CLASSIFICATION_TYPE = U
NORAD_CAT_ID   = 42758
ELEMENT_SET_NO = 999
REV_AT_EPOCH   = 47590
BSTAR          = .42899E-3
MEAN_MOTION_DOT = .8489E-4
MEAN_MOTION_DDOT = 0

CCSDS_OMM_VERS = 2.0
CREATION_DATE  = 
ORIGINATOR     = 

OBJECT_NAME    = CZ-2C R/B
OBJECT_ID      = 2018-054D
CENTER_NAME    = EARTH
REF_FRAME      = TEME
TIME_SYSTEM    = UTC
MEAN_ELEMENT_THEORY = SGP/SGP4

EPOCH          = 2026-01-24T22:58:50.070144
MEAN_MOTION    = 15.87351468
ECCENTRICITY   = .001268
INCLINATION    = 35.1305
RA_OF_ASC_NODE = 245.3328
ARG_OF_PERICENTER = 238.1328
MEAN_ANOMALY   = 121.8175

EPHEMERIS_TYPE = 0
CLASSIFICATION_TYPE = U
NORAD_CAT_ID   = 43521
ELEMENT_SET_NO = 999
REV_AT_EPOCH   = 42189
BSTAR          = .91112E-3
MEAN_MOTION_DOT = .258837E-2
MEAN_MOTION_DDOT = 0

CCSDS_OMM_VERS = 2.0
CREATION_DATE  = 
ORIGINATOR     = 

OBJECT_NAME    = SAOCOM 1A
OBJECT_ID      = 2018-076A
CENTER_NAME    = EARTH
REF_FRAME      = TEME
TIME_SYSTEM    = UTC
MEAN_ELEMENT_THEORY = SGP/SGP4

EPOCH          = 2026-01-25T03:34:05.438784
MEAN_MOTION    = 14.82166783
ECCENTRICITY   = .000152
INCLINATION    = 97.8860
RA_OF_ASC_NODE = 213.9406
ARG_OF_PERICENTER = 84.5920
MEAN_ANOMALY   = 275.5467

EPHEMERIS_TYPE = 0
CLASSIFICATION_TYPE = U
NORAD_CAT_ID   = 43641
ELEMENT_SET_NO = 999
REV_AT_EPOCH   = 39491
BSTAR          = .15158E-3
MEAN_MOTION_DOT = .1155E-4
MEAN_MOTION_DDOT = 0

CCSDS_OMM_VERS = 2.0
CREATION_DATE  = 
ORIGINATOR     = 

OBJECT_NAME    = H-2A R/B
OBJECT_ID      = 2018-084L
CENTER_NAME    = EARTH
REF_FRAME      = TEME
TIME_SYSTEM    = UTC
MEAN_ELEMENT_THEORY = SGP/SGP4

EPOCH          = 2026-01-25T03:27:49.389696
MEAN_MOTION    = 15.39328721
ECCENTRICITY   = .0026072
INCLINATION    = 98.8766
RA_OF_ASC_NODE = 233.2888
ARG_OF_PERICENTER = 173.0062
MEAN_ANOMALY   = 187.1548

EPHEMERIS_TYPE = 0
CLASSIFICATION_TYPE = U
NORAD_CAT_ID   = 43682
ELEMENT_SET_NO = 999
REV_AT_EPOCH   = 39907
BSTAR          = .73715E-3
MEAN_MOTION_DOT = .2908E-3
MEAN_MOTION_DDOT = 0

CCSDS_OMM_VERS = 2.0
CREATION_DATE  = 
ORIGINATOR     = 

OBJECT_NAME    = SAOCOM 1B
OBJECT_ID      = 2020-059A
CENTER_NAME    = EARTH
REF_FRAME      = TEME
TIME_SYSTEM    = UTC
MEAN_ELEMENT_THEORY = SGP/SGP4

EPOCH          = 2026-01-25T07:33:29.274624
MEAN_MOTION    = 14.82142819
ECCENTRICITY   = .0001307
INCLINATION    = 97.8862
RA_OF_ASC_NODE = 213.2040
ARG_OF_PERICENTER = 88.5188
MEAN_ANOMALY   = 271.6175

EPHEMERIS_TYPE = 0
CLASSIFICATION_TYPE = U
NORAD_CAT_ID   = 46265
ELEMENT_SET_NO = 999
REV_AT_EPOCH   = 29232
BSTAR          = .11523E-3
MEAN_MOTION_DOT = .865E-5
MEAN_MOTION_DDOT = 0

CCSDS_OMM_VERS = 2.0
CREATION_DATE  = 
ORIGINATOR     = 

OBJECT_NAME    = CSS (TIANHE)
OBJECT_ID      = 2021-035A
CENTER_NAME    = EARTH
REF_FRAME      = TEME
TIME_SYSTEM    = UTC
MEAN_ELEMENT_THEORY = SGP/SGP4

EPOCH          = 2026-01-25T02:49:10.634016
MEAN_MOTION    = 15.61038306
ECCENTRICITY   = .0009952
INCLINATION    = 41.4666
RA_OF_ASC_NODE = 113.0026
ARG_OF_PERICENTER = 356.5980
MEAN_ANOMALY   = 3.4790

EPHEMERIS_TYPE = 0
CLASSIFICATION_TYPE = U
NORAD_CAT_ID   = 48274
ELEMENT_SET_NO = 999
REV_AT_EPOCH   = 27080
BSTAR          = .34841E-3
MEAN_MOTION_DOT = .29997E-3
MEAN_MOTION_DDOT = 0

CCSDS_OMM_VERS = 2.0
CREATION_DATE  = 
ORIGINATOR     = 

OBJECT_NAME    = COSMOS 2550
OBJECT_ID      = 2021-056A
CENTER_NAME    = EARTH
REF_FRAME      = TEME
TIME_SYSTEM    = UTC
MEAN_ELEMENT_THEORY = SGP/SGP4

EPOCH          = 2026-01-23T09:26:54.726144
MEAN_MOTION    = 15.33842763
ECCENTRICITY   = .00084274
INCLINATION    = 67.1417
RA_OF_ASC_NODE = 177.9415
ARG_OF_PERICENTER = 270.0851
MEAN_ANOMALY   = 89.9337

EPHEMERIS_TYPE = 0
CLASSIFICATION_TYPE = U
NORAD_CAT_ID   = 48865
ELEMENT_SET_NO = 999
REV_AT_EPOCH   = 25651
BSTAR          = -.42471E-7
MEAN_MOTION_DOT = -.193E-5
MEAN_MOTION_DDOT = 0

CCSDS_OMM_VERS = 2.0
CREATION_DATE  = 
ORIGINATOR     = 

OBJECT_NAME    = CZ-2C R/B
OBJECT_ID      = 2022-058K
CENTER_NAME    = EARTH
REF_FRAME      = TEME
TIME_SYSTEM    = UTC
MEAN_ELEMENT_THEORY = SGP/SGP4

EPOCH          = 2026-01-25T03:15:30.059712
MEAN_MOTION    = 15.51183130
ECCENTRICITY   = .0042605
INCLINATION    = 50.1884
RA_OF_ASC_NODE = 181.8120
ARG_OF_PERICENTER = 17.0143
MEAN_ANOMALY   = 343.2243

EPHEMERIS_TYPE = 0
CLASSIFICATION_TYPE = U
NORAD_CAT_ID   = 52794
ELEMENT_SET_NO = 999
REV_AT_EPOCH   = 20336
BSTAR          = .65819E-3
MEAN_MOTION_DOT = .40457E-3
MEAN_MOTION_DDOT = 0

